[{"OBJECT_NAME":"STARLINK-5249","OBJECT_ID":"2022-141BA","EPOCH":"2026-03-09T02:22:07.998816","MEAN_MOTION":15.08848113,"ECCENTRICITY":0.00012661,"INCLINATION":53.2186,"RA_OF_ASC_NODE":356.4136,"ARG_OF_PERICENTER":73.8418,"MEAN_ANOMALY":286.2713,"EPHEMERIS_TYPE":0,"CLASSIFICATION_TYPE":"U","NORAD_CAT_ID":54205,"ELEMENT_SET_NO":999,"REV_AT_EPOCH":18591,"BSTAR":0.00013445129,"MEAN_MOTION_DOT":1.853e-5,"MEAN_MOTION_DDOT":0},{"OBJECT_NAME":"PSLV R\/B","OBJECT_ID":"2010-035F","EPOCH":"2026-03-09T21:32:02.806944","MEAN_MOTION":15.11637156,"ECCENTRICITY":0.00120112,"INCLINATION":97.9796,"RA_OF_ASC_NODE":355.2302,"ARG_OF_PERICENTER":197.9598,"MEAN_ANOMALY":162.1208,"EPHEMERIS_TYPE":0,"CLASSIFICATION_TYPE":"U","NORAD_CAT_ID":36800,"ELEMENT_SET_NO":999,"REV_AT_EPOCH":85407,"BSTAR":0.00037264097,"MEAN_MOTION_DOT":6.275e-5,"MEAN_MOTION_DDOT":0}]
